LUCH-5A                 
1 37951U 11074B   26083.29938809 -.00000054  00000+0  00000+0 0  9993
2 37951   8.5385  75.0419 0003270 264.4374 117.0700  1.00269131 52202
NIGCOMSAT 1R            
1 38014U 11077A   26083.27477465  .00000138  00000+0  00000+0 0  9993
2 38014   0.0174 203.7092 0002713 121.5829 357.8496  1.00271232 52102
WGS F4 (USA 233)        
1 38070U 12003A   26083.49775153 -.00000222  00000+0  00000+0 0  9999
2 38070   0.0140 170.8845 0000621 115.9935 162.6581  1.00269630 43294
SES-4                   
1 38087U 12007A   26083.40458447 -.00000176  00000+0  00000+0 0  9994
2 38087   0.0317  63.9966 0002418 303.4750 298.0500  1.00270166 51378
BEIDOU-2 G5             
1 38091U 12008A   26083.49194484  .00000050  00000+0  00000+0 0  9997
2 38091   3.3613  70.1750 0013602 257.0149  90.5675  1.00271794 51514
MUOS-1                  
1 38093U 12009A   26083.46039802 -.00000133  00000+0  00000+0 0  9992
2 38093   5.3030  47.1878 0058497 359.0302 201.5069  1.00272388 51590
INTELSAT 22 (IS-22)     
1 38098U 12011A   26083.42321788 -.00000066  00000+0  00000+0 0  9998
2 38098   0.0159 127.8675 0001782 254.2116  24.2741  1.00271971  6330
APSTAR-7                
1 38107U 12013A   26083.49541152 -.00000109  00000+0  00000+0 0  9995
2 38107   0.0053 146.0961 0002397 223.5723  67.1349  1.00271456 50956
YAHSAT 1B               
1 38245U 12016A   26083.33308542  .00000120  00000+0  00000+0 0  9990
2 38245   0.0894  89.2935 0002727 268.9874 351.0206  1.00270896 44753
AEHF-2 (USA 235)        
1 38254U 12019A   26083.69092464 -.00000141  00000+0  00000+0 0  9999
2 38254   6.4550  58.0969 0003008 295.2107  61.1243  1.00272038  6138
JCSAT-13                
1 38331U 12023A   26083.48198036  .00000000  00000+0  00000+0 0  9992
2 38331   0.0188 156.4572 0002154 227.0354  95.9892  1.00269066 50694
VINASAT-2               
1 38332U 12023B   26083.28656159 -.00000336  00000+0  00000+0 0  9999
2 38332   0.0061 232.0111 0002698 143.5229  41.2252  1.00269756 45808
NIMIQ 6                 
1 38342U 12026A   26083.50299185  .00000000  00000+0  00000+0 0  9997
2 38342   0.0160 149.6272 0002561 205.2164 277.1106  1.00269495 49568
ZHONGXING-2A            
1 38352U 12028A   26083.49974486 -.00000300  00000+0  00000+0 0  9996
2 38352   1.2337  85.0050 0000573 279.5603  95.5769  1.00270937 50458
INTELSAT 19 (IS-19)     
1 38356U 12030A   26083.45044715 -.00000064  00000+0  00000+0 0  9999
2 38356   0.0136 240.7297 0002870 121.7104 147.6495  1.00273243 49608
ECHOSTAR 17             
1 38551U 12035A   26083.24975338 -.00000082  00000+0  00000+0 0  9992
2 38551   0.0185 156.0959 0001831 199.2445 169.1862  1.00272079 50219
METEOSAT-10 (MSG-3)     
1 38552U 12035B   26083.19504101 -.00000012  00000+0  00000+0 0  9996
2 38552   4.4706  61.3678 0002400 279.9693 270.6195  1.00270208 50003
SES-5                   
1 38652U 12036A   26083.38170034  .00000026  00000+0  00000+0 0  9997
2 38652   0.0639 304.6836 0002057  44.8836 334.6725  1.00271089 43602
INTELSAT 20 (IS-20)     
1 38740U 12043A   26082.99469079 -.00000030  00000+0  00000+0 0  9995
2 38740   0.0147 117.1850 0002673  42.1310  88.7313  1.00270757 49897
HYLAS 2                 
1 38741U 12043B   26083.46585806 -.00000264  00000+0  00000+0 0  9995
2 38741   2.2082  82.0927 0002451 299.1789 255.8214  1.00270721 49925
INTELSAT 21 (IS-21)     
1 38749U 12045A   26083.43871221 -.00000292  00000+0  00000+0 0  9992
2 38749   0.0357 260.7799 0001796  78.5713 302.4865  1.00268354 49675
ASTRA 2F                
1 38778U 12051A   26083.34975362  .00000143  00000+0  00000+0 0  9996
2 38778   0.0695 255.9092 0002287  24.1800  55.8227  1.00269750 40284
GSAT-10                 
1 38779U 12051B   26083.42538455 -.00000172  00000+0  00000+0 0  9997
2 38779   0.0191 230.5974 0005189 209.7513 337.6877  1.00270538 49243
INTELSAT 23 (IS-23)     
1 38867U 12057A   26083.46975808 -.00000292  00000+0  00000+0 0  9995
2 38867   0.0214 243.0460 0000441 119.2287 295.7862  1.00273244 49105
BEIDOU-2 G6             
1 38953U 12059A   26083.49697152 -.00000182  00000+0  00000+0 0  9997
2 38953   4.2056  74.4129 0010396 306.7383  63.7577  1.00272900 49068
LUCH-5B                 
1 38977U 12061A   26083.19183433 -.00000142  00000+0  00000+0 0  9991
2 38977  10.3011  50.7042 0003280 224.2494 319.4103  1.00270072 48754
YAMAL 300K              
1 38978U 12061B   26083.65911782  .00000063  00000+0  00000+0 0  9990
2 38978   0.0156 184.4752 0000567  44.2070  13.6621  1.00271557 48789
STAR ONE C3             
1 38991U 12062A   26083.46542472 -.00000257  00000+0  00000+0 0  9997
2 38991   0.0188 263.7923 0002204 109.1615 261.5295  1.00271996 48919
EUTELSAT 21B            
1 38992U 12062B   26083.34975362  .00000123  00000+0  00000+0 0  9994
2 38992   0.0705 347.0665 0002930  17.8200 324.4430  1.00274295 48976
ECHOSTAR 16             
1 39008U 12065A   26082.96895068 -.00000287  00000+0  00000+0 0  9999
2 39008   0.0186 174.1525 0001996 186.1579 108.4544  1.00270566 48795
ZHONGXING-12            
1 39017U 12067A   26083.49757818 -.00000214  00000+0  00000+0 0  9990
2 39017   0.0138 146.0999 0003309 210.7887  91.6949  1.00272118 48653
EUTELSAT 70B            
1 39020U 12069A   26083.49428484 -.00000051  00000+0  00000+0 0  9999
2 39020   0.0645 358.9129 0001829   1.9613  69.5127  1.00271777 48653
YAMAL 402               
1 39022U 12070A   26079.42669000  .00000089  00000+0  00000+0 0  9992
2 39022   1.0348  85.3170 0003933 271.4647  29.6827  1.00272918 48508
SKYNET 5D               
1 39034U 12075A   26083.49073148  .00000092  00000+0  00000+0 0  9998
2 39034   0.0683 356.8745 0003647 357.5208  56.9523  1.00270580 48304
MEXSAT 3                
1 39035U 12075B   26083.52961197 -.00000033  00000+0  00000+0 0  9999
2 39035   0.0096 160.6020 0001053 199.0096 258.2195  1.00268786  6203
TDRS 11                 
1 39070U 13004A   26083.43378150  .00000073  00000+0  00000+0 0  9995
2 39070   3.3968  29.7352 0004413 350.8924 143.0281  1.00269456 45844
AMAZONAS 3              
1 39078U 13006A   26083.46819806 -.00000290  00000+0  00000+0 0  9998
2 39078   0.0287 220.8296 0002149 118.7978 309.8676  1.00272536 44061
AZERSPACE 1             
1 39079U 13006B   26083.48934481  .00000000  00000+0  00000+0 0  9996
2 39079   0.0169 160.3472 0001083 216.2930  27.4741  1.00269727 47958
SBIRS GEO-2 (USA 241)   
1 39120U 13011A   26083.32781485 -.00000292  00000+0  00000+0 0  9990
2 39120   4.3053  52.4048 0002311 311.4663 246.1378  1.00271799 47688
EUTELSAT 117 WEST A     
1 39122U 13012A   26083.52961197 -.00000020  00000+0  00000+0 0  9994
2 39122   0.0165  79.4219 0002850 281.5675 254.8550  1.00270912 47587
ANIK G1                 
1 39127U 13014A   26083.52405984 -.00000082  00000+0  00000+0 0  9996
2 39127   0.0173 162.2984 0002771 172.6147 288.4321  1.00271555 47401
ZHONGXING-11            
1 39157U 13020A   26083.64231060 -.00000298  00000+0  00000+0 0  9990
2 39157   0.0386 296.4171 0000974  89.2658 125.5427  1.00269375 47057
EUTELSAT 7B             
1 39163U 13022A   26083.38170034  .00000041  00000+0  00000+0 0  9998
2 39163   0.0677 355.7468 0006188   5.5302 324.9898  1.00272858 47096
WGS F5 (USA 243)        
1 39168U 13024A   26083.46984473 -.00000292  00000+0  00000+0 0  9993
2 39168   0.0037 187.7058 0000340 102.1154   8.7562  1.00271140 46325
SES-6                   
1 39172U 13026A   26083.47209808 -.00000269  00000+0  00000+0 0  9997
2 39172   0.0436 297.5714 0001911  78.0944 295.7257  1.00271653 46873
IRNSS-1A                
1 39199U 13034A   26078.61919625  .00000097  00000+0  00000+0 0  9998
2 39199  35.5249  65.1477 0017129 191.1572 198.6544  1.00274618 46474
MUOS-2                  
1 39206U 13036A   26083.22901447 -.00000018  00000+0  00000+0 0  9999
2 39206   4.8263  45.3659 0051598 183.1088 207.6219  1.00271288 46347
ALPHASAT                
1 39215U 13038A   26083.34975362  .00000128  00000+0  00000+0 0  9992
2 39215   2.9860   1.9804 0001874  18.8310 311.8106  1.00273013 43161
INSAT-3D                
1 39216U 13038B   26083.49255243 -.00000346  00000+0  00000+0 0  9991
2 39216   1.7068  83.6120 0001662 238.5426 166.6976  1.00270700 46233
WGS F6 (USA 244)        
1 39222U 13041A   26083.19350516  .00000083  00000+0  00000+0 0  9995
2 39222   0.0176 147.8162 0000574 162.3381 165.9795  1.00271749 45218
ES'HAIL 1               
1 39233U 13044A   26083.34975362  .00000136  00000+0  00000+0 0  9998
2 39233   0.0604   0.8715 0002820 355.0184 337.3644  1.00274140 45773
GSAT-7                  
1 39234U 13044B   26083.54197468 -.00000084  00000+0  00000+0 0  9997
2 39234   0.0755  88.2765 0006070 207.5296 155.2935  1.00271259 44409
AMOS-4                  
1 39237U 13045A   26083.49315816  .00000000  00000+0  00000+0 0  9991
2 39237   0.0185 206.6741 0003392 156.7026  61.1139  1.00271116 46101
AEHF-3 (USA 246)        
1 39256U 13050A   26083.45563134  .00000023  00000+0  00000+0 0  9997
2 39256   5.0848  67.9595 0090144 188.3211 325.4498  1.00268947 44803
ASTRA 2E                
1 39285U 13056A   26083.20058770  .00000144  00000+0  00000+0 0  9997
2 39285   0.0682  23.9317 0002107 341.9606 276.4845  1.00274481 45562
FM-6                    
1 39360U 13058A   26083.52961197 -.00000023  00000+0  00000+0 0  9991
2 39360   0.0241 130.8089 0002901  46.1566  79.3331  1.00268966 45226
RADUGA-1M 3             
1 39375U 13062A   26083.20197437  .00000148  00000+0  00000+0 0  9992
2 39375   5.7448  73.4175 0000318 250.2380 325.7297  1.00271902 45259
SES-8                   
1 39460U 13071A   26083.07121776 -.00000275  00000+0  00000+0 0  9997
2 39460   0.0368 262.9618 0001850 122.0043 277.2154  1.00269618 43582
INMARSAT 5-F1           
1 39476U 13073A   26082.19266781  .00000026  00000+0  00000+0 0  9997
2 39476   0.0180 149.1568 0000319  65.8901  97.5640  1.00270236 44714
